CAS-2T & KS-1Q          
1 41847U 16066G   20337.79214475  .00000233  00000-0  44327-4 0  9999
2 41847  98.6320  29.8093 0366581  87.1836 277.1239 14.38120854213617
NAYIF-1 (EO-88)         
1 42017U 17008BX  20337.85902491  .00004502  00000-0  17189-3 0  9993
2 42017  97.3419  42.8403 0007779  87.9181 272.2949 15.27125572211246
ZHUHAI-1 02 (CAS-4B)    
1 42759U 17034B   20338.43909793  .00000827  00000-0  63425-4 0  9993
2 42759  43.0172 178.5117 0010362   8.3149  62.0471 15.09983058191518
ZHUHAI-1 01 (CAS-4A)    
1 42761U 17034D   20338.44086314  .00000807  00000-0  62124-4 0  9995
2 42761  43.0169 177.6902 0010722   9.8632  61.4236 15.10062657191519
MAX VALIER SAT          
1 42778U 17036P   20338.41944306  .00002577  00000-0  11227-3 0  9999
2 42778  97.2835  27.2051 0013186 141.7594 218.4580 15.23001664191446
RADFXSAT (FOX-1B)       
1 43017U 17073E   20337.98079585  .00001242  00000-0  10187-3 0  9998
2 43017  97.7164 243.6542 0255102 220.9074 137.2750 14.79189321164074
FOX-1D (AO-92)          
1 43137U 18004AC  20338.19563791  .00003167  00000-0  13143-3 0  9990
2 43137  97.4297  48.0896 0009170 172.4258 187.7120 15.24551711160745
DIWATA-2B               
1 43678U 18084H   20338.38435627  .00000614  00000-0  66736-4 0  9996
2 43678  97.9028  96.9769 0009646 347.2940  12.8018 14.91683582114200
ES'HAIL 2               
1 43700U 18090A   20337.81299267  .00000164  00000-0  00000-0 0  9992
2 43700   0.0144 311.3506 0002012 326.0399 113.2394  1.00273518  7390
FOX-1CLIFF (AO-95)      
1 43770U 18099N   20338.17031764  .00000472  00000-0  48161-4 0  9990
2 43770  97.6899  46.4633 0014462 359.7657   0.3555 14.95121554109124
ITASAT 1                
1 43786U 18099AE  20338.46439762  .00000738  00000-0  71778-4 0  9994
2 43786  97.6911  47.2920 0014763 351.5473   8.5497 14.95440115109193
JY1SAT (JO-97)          
1 43803U 18099AX  20338.19017310  .00000699  00000-0  67946-4 0  9993
2 43803  97.6872  46.8049 0014778 352.4236   7.6760 14.95643337109159
PSAT2 (NO-104)          
1 44354U 19036R   20338.28296541  .00029143  00000-0  41487-3 0  9998
2 44354  28.5328 349.1885 0348283 318.4236  39.0354 15.07554700 79276
BRICSAT2 (NO-103)       
1 44355U 19036S   20338.18076942  .00060940  00000-0  78600-3 0  9996
2 44355  28.5303 329.6963 0311856 350.1117   9.3447 15.16931963 79461
JAISAT-1                
1 44419U 19038F   20337.61486507  .00002646  00000-0  15239-3 0  9996
2 44419  97.5623 297.4760 0019638 271.5625  88.3356 15.13157721 78029
DUCHIFAT-3              
1 44854U 19089C   20338.27248381  .00001091  00000-0  94204-4 0  9997
2 44854  36.9658 180.5699 0009461 343.3747  16.6686 14.99230238 53645
RS-44 & BREEZE-KM R/B   
1 44909U 19096E   20337.76362874  .00000034  00000-0  89587-4 0  9997
2 44909  82.5230 243.4684 0217030 192.7340 166.8228 12.79707680 43713
ORBITAL FACTORY 2 (OF-2)
1 45113U 19071C   20337.53260113  .00006116  00000-0  19252-3 0  9994
2 45113  51.6428 271.2022 0011924 305.4019  54.5849 15.34244612 46925
HUSKYSAT-1              
1 45119U 19071J   20337.81561438  .00006809  00000-0  21206-3 0  9996
2 45119  51.6429 269.3418 0011264 302.5232  57.4661 15.34398039 46962
BY70-2                  
1 45857U 20042B   20338.42172921  .00002376  00000-0  34796-3 0  9991
2 45857  98.0021  50.1225 0012606 124.3457 235.8950 14.76506947 22619
SALSAT                  
1 46495U 20068K   20337.84655309  .00000685  00000-0  54937-4 0  9990
2 46495  97.6738 270.7409 0018167  20.4768 339.7183 15.03262772  9793
BY70-3                  
1 46839U 20079N   20338.42626334  .00005988  00000-0  19402-3 0  9993
2 46839  97.2639  50.1258 0007574 176.1767 242.8723 15.32348582  4178
